#cV2015  1  3  0  0  0.00000000     288   BCE WGS84      ARL
## 1825 518400.00000000   300.00000000 57025 0.0000000000000
+   31   G01G02G03G04G05G06G07G09G10G11G12G13G14G15G16G17G18
+        G19G20G21G22G23G24G25G26G27G28G29G30G31G32  0  0  0
+          0  0  0  0  0  0  0  0  0  0  0  0  0  0  0  0  0
+          0  0  0  0  0  0  0  0  0  0  0  0  0  0  0  0  0
+          0  0  0  0  0  0  0  0  0  0  0  0  0  0  0  0  0
++         0  0  0  0  0  0  0  0  0  0  0  0  0  0  0  0  0
++         0  0  0  0  0  0  0  0  0  0  0  0  0  0  0  0  0
++         0  0  0  0  0  0  0  0  0  0  0  0  0  0  0  0  0
++         0  0  0  0  0  0  0  0  0  0  0  0  0  0  0  0  0
++         0  0  0  0  0  0  0  0  0  0  0  0  0  0  0  0  0
%c G  cc GPS ccc cccc cccc cccc cccc ccccc ccccc ccccc ccccc
%c cc cc ccc ccc cccc cccc cccc cccc ccccc ccccc ccccc ccccc
%f  0.0000000  0.000000000  0.00000000000  0.000000000000000
%f  0.0000000  0.000000000  0.00000000000  0.000000000000000
%i    0    0    0    0      0      0      0      0         0
%i    0    0    0    0      0      0      0      0         0
/* CCCCCCCCCCCCCCCCCCCCCCCCCCCCCCCCCCCCCCCCCCCCCCCCCCCCCCCCC
/* CCCCCCCCCCCCCCCCCCCCCCCCCCCCCCCCCCCCCCCCCCCCCCCCCCCCCCCCC
/* CCCCCCCCCCCCCCCCCCCCCCCCCCCCCCCCCCCCCCCCCCCCCCCCCCCCCCCCC
/* CCCCCCCCCCCCCCCCCCCCCCCCCCCCCCCCCCCCCCCCCCCCCCCCCCCCCCCCC
*  2015  1  3  1 30  0.00000000
PG01 -18798.605963 -13398.871267 -13331.527314    -10.559473  0  0  0   0       
VG01  16851.312318   1370.650169 -25074.171580      0.003411  0  0  0   0
PG02  -5137.916607  15077.267683  21551.905404    539.575336  0  0  0   0       
VG02 -26233.951739  -5051.073474  -3240.910243      0.022737  0  0  0   0
PG03 -13185.421452 -21614.542422   7953.925031    121.962153  0  0  0   0       
VG03   -658.038241 -10447.097998 -29538.906916      0.267164  0  0  0   0
PG04  -8728.490104 -16194.275348 -19559.362138     -5.101228  0  0  0   0       
VG04  23983.720802   3190.967771 -13299.861994     -0.005684  0  0  0   0
PG05    679.592207  24435.543439  10112.669880   -297.973475  0  0  0   0       
VG05  -7103.343979 -11310.029424  27833.148929      0.050022  0  0  0   0
PG06 -19495.775151   7711.482444  16284.673310     41.474833  0  0  0   0       
VG06 -19943.328919  -5867.852469 -21097.656332      0.094360  0  0  0   0
PG07 -25662.493041  -7298.724328   2111.481213    428.049274  0  0  0   0       
VG07   2944.922656  -1538.114588  31613.803765      0.034106  0  0  0   0
PG09 -17721.670909   -814.321336  19764.264945    -44.092131  0  0  0   0       
VG09  15639.448485 -19682.341841  13198.452856     -0.105729  0  0  0   0
PG10 -12287.383000  10646.686723  20553.548826   -157.083109  0  0  0   0       
VG10  -9435.395110 -25449.376236   7828.888259     -0.017053  0  0  0   0
PG11 -13040.257897 -13799.525685 -19147.479588   -548.106873  0  0  0   0       
VG11  23024.497047  -4987.090517 -12275.634359     -0.027285  0  0  0   0
PG12  10519.731475  23923.677533   5276.586783    258.393853  0  0  0   0       
VG12    233.450649   6948.059594 -31293.901699      0.029559  0  0  0   0
PG13 -11600.895541  21134.455947 -11536.304115    -75.241465  0  0  0   0       
VG13 -11796.982965   8293.129711  27257.004646     -0.034106  0  0  0   0
PG14  21212.962821 -14290.845499  -6645.810608    100.452743  0  0  0   0       
VG14  -4449.434292   7996.305409 -30489.805614     -0.035243  0  0  0   0
PG15   5160.693689  16903.312203 -19815.600758   -224.053958  0  0  0   0       
VG15 -16988.199413  18641.636655  11839.418777     -0.022737  0  0  0   0
PG16    569.403977 -24216.369017  10393.226247   -168.141381  0  0  0   0       
VG16   5374.110391  12398.112887  28791.906545      0.030695  0  0  0   0
PG17 -21017.532129  13405.998708  -8548.610234   -147.734903  0  0  0   0       
VG17   6016.589587  -9894.430760 -29563.554926     -0.022737  0  0  0   0
PG18  17185.838792   5131.335103 -19210.892867    369.556925  0  0  0   0       
VG18   7069.129883  24498.319295  12251.724566      0.027285  0  0  0   0
PG19   1687.804904 -19000.487698 -18456.758222   -495.076574  0  0  0   0       
VG19  18024.370480 -14743.030714  17426.604903     -0.015916  0  0  0   0
PG20 -17246.070893 -14885.112096  13588.641797    274.374494  0  0  0   0       
VG20  -3995.425989 -17378.079726 -23694.060118      0.042064  0  0  0   0
PG21  26411.858988   3109.669261  -2463.697614   -403.896538  0  0  0   0       
VG21   3213.266828   4030.215761  30671.265449     -0.022737  0  0  0   0
PG22  13269.667199  -9527.308750 -20707.338314    303.339501  0  0  0   0       
VG22   9728.675353  25163.342546  -5458.022286      0.039790  0  0  0   0
PG23 -11030.865994 -10918.957820  21672.591341    -78.963327  0  0  0   0       
VG23  18378.745400 -20140.321471  -1219.787937     -0.027285  0  0  0   0
PG24  16113.769788  14279.876443 -15660.150431    -41.112212  0  0  0   0       
VG24 -19836.095048  -1682.574459 -21843.206990     -0.005684  0  0  0   0
PG25  16012.610332  14206.037869  15743.822847      5.656289  0  0  0   0       
VG25   4967.413517  19470.863397 -22362.538088     -0.022737  0  0  0   0
PG26  -8663.389675  21096.148903 -14039.740755   -179.045174  0  0  0   0       
VG26 -13591.418330  10057.626314  24948.704663     -0.133014  0  0  0   0
PG27  10306.574017 -22283.548223 -10036.582412     41.580548  0  0  0   0       
VG27  10219.305071  -7994.320119  28354.408926      0.027285  0  0  0   0
PG28 -13899.601376   3497.603202 -21739.198654    409.738111  0  0  0   0       
VG28  -7414.293319 -28092.840000    111.164541      0.026148  0  0  0   0
PG29  15799.269567   4288.278735  20935.885102    583.520053  0  0  0   0       
VG29 -18010.177024  19440.537539   9660.097064      0.023874  0  0  0   0
PG30 -24984.378399   -399.421277  -9072.266715    -86.229407  0  0  0   0       
VG30 -10369.990345  -5644.802312  28757.184112     -0.004547  0  0  0   0
PG31  17721.300175  -8464.073616  18185.363215    326.230226  0  0  0   0       
VG31  21783.358173   6222.592597 -18155.953899     -0.007958  0  0  0   0
PG32  -4095.789973 -26346.153258  -3235.683061   -256.375130  0  0  0   0       
VG32   3650.917638   3274.124937 -30733.458688      0.086402  0  0  0   0
EOF
